{
    "links": {
        "self": "http://www.neowsapp.com/rest/v1/neo/3748460?api_key=iIulBulltgU6a56xZRHN4H3l9WmuAYTsLGpBGhQ2"
    },
    "id": "3748460",
    "neo_reference_id": "3748460",
    "name": "(2016 FF13)",
    "designation": "2016 FF13",
    "nasa_jpl_url": "http://ssd.jpl.nasa.gov/sbdb.cgi?sstr=3748460",
    "absolute_magnitude_h": 23.4,
    "estimated_diameter": {
        "kilometers": {
            "estimated_diameter_min": 0.0555334912,
            "estimated_diameter_max": 0.1241766613
        },
        "meters": {
            "estimated_diameter_min": 55.5334911581,
            "estimated_diameter_max": 124.1766612574
        },
        "miles": {
            "estimated_diameter_min": 0.0345069009,
            "estimated_diameter_max": 0.0771597762
        },
        "feet": {
            "estimated_diameter_min": 182.1964991311,
            "estimated_diameter_max": 407.4037573197
        }
    },
    "is_potentially_hazardous_asteroid": false,
    "close_approach_data": [
        {
            "close_approach_date": "1934-03-21",
            "close_approach_date_full": "1934-Mar-21 22:12",
            "epoch_date_close_approach": -1129168080000,
            "relative_velocity": {
                "kilometers_per_second": "21.4032057093",
                "kilometers_per_hour": "77051.5405534418",
                "miles_per_hour": "47876.8308511095"
            },
            "miss_distance": {
                "astronomical": "0.4078464353",
                "lunar": "158.6522633317",
                "kilometers": "61012958.007972811",
                "miles": "37911694.1175383518"
            },
            "orbiting_body": "Earth"
        },
        {
            "close_approach_date": "2016-04-18",
            "close_approach_date_full": "2016-Apr-18 17:09",
            "epoch_date_close_approach": 1460999340000,
            "relative_velocity": {
                "kilometers_per_second": "10.6821977238",
                "kilometers_per_hour": "38455.911805802",
                "miles_per_hour": "23895.0080884441"
            },
            "miss_distance": {
                "astronomical": "0.0723698183",
                "lunar": "28.1518593187",
                "kilometers": "10826370.669967021",
                "miles": "6727194.7901500498"
            },
            "orbiting_body": "Earth"
        },
        {
            "close_approach_date": "2083-07-18",
            "close_approach_date_full": "2083-Jul-18 04:31",
            "epoch_date_close_approach": 3583110660000,
            "relative_velocity": {
                "kilometers_per_second": "16.8572233458",
                "kilometers_per_hour": "60686.0040447353",
                "miles_per_hour": "37707.9229021301"
            },
            "miss_distance": {
                "astronomical": "0.2477408196",
                "lunar": "96.3711788244",
                "kilometers": "37061498.924214252",
                "miles": "23028947.5650185976"
            },
            "orbiting_body": "Earth"
        }
    ],
    "orbital_data": {
        "orbit_id": "20",
        "orbit_determination_date": "2018-02-10 07:07:46",
        "first_observation_date": "2016-03-30",
        "last_observation_date": "2016-04-22",
        "data_arc_in_days": 23,
        "observations_used": 102,
        "orbit_uncertainty": "7",
        "minimum_orbit_intersection": ".0489957",
        "jupiter_tisserand_invariant": "3.268",
        "epoch_osculation": "2459000.5",
        "eccentricity": ".5873478395309953",
        "semi_major_axis": "2.397107993582478",
        "inclination": "2.997262130374994",
        "ascending_node_longitude": "150.6073675114516",
        "orbital_period": "1355.594590391938",
        "perihelion_distance": ".9891717924293304",
        "perihelion_argument": "90.05703246208333",
        "aphelion_distance": "3.805044194735625",
        "perihelion_time": "2458877.733312286304",
        "mean_anomaly": "32.60267331411542",
        "mean_motion": ".2655661231990566",
        "equinox": "J2000",
        "orbit_class": {
            "orbit_class_type": "APO",
            "orbit_class_description": "Near-Earth asteroid orbits which cross the Earth’s orbit similar to that of 1862 Apollo",
            "orbit_class_range": "a (semi-major axis) > 1.0 AU; q (perihelion) < 1.017 AU"
        }
    },
    "is_sentry_object": false
}